E-ST@R-II               
1 41459U 16025D   22014.90670452  .00003502  00000+0  16588-3 0  9999
2 41459  98.1660 169.3432 0156210  69.3839 292.4094 15.09874421314308
AAUSAT 4                
1 41460U 16025E   22014.85345212  .00005013  00000+0  22059-3 0  9997
2 41460  98.1621 174.3289 0141065  49.6925 311.6415 15.13792953314666
BEESAT-4                
1 41619U 16040W   22014.11588098  .00004610  00000+0  17558-3 0  9990
2 41619  97.2429  69.1492 0008891 312.1482  47.9001 15.27177436297141
CANX-7                  
1 41788U 16059F   22014.77152275  .00046739  00000+0  38722-2 0  9996
2 41788  98.2431 134.3573 0023463 225.1403 134.8085 14.98455693285354
RAVAN                   
1 41849U 16067B   22014.36273291  .00001781  00000+0  14984-3 0  9993
2 41849  97.9836 147.1566 0010658 132.7223 227.4898 14.99577516282893
CELTEE 1                
1 41850U 16067C   22014.62137470  .00001177  00000+0  10553-3 0  9999
2 41850  97.9758 143.1242 0009934 126.5019 233.7119 14.97755883282725
OPTICUBE 04             
1 41851U 16067D   22014.81268396  .00000618  00000+0  58592-4 0  9998
2 41851  97.9743 142.5393 0009818 128.6203 231.5899 14.97311063282717
AEROCUBE 8D             
1 41852U 16067E   22014.79542820  .00000564  00000+0  53566-4 0  9999
2 41852  97.9744 142.4441 0010190 127.3649 232.8502 14.97562164282699
AEROCUBE 8C             
1 41853U 16067F   22014.57289027  .00001558  00000+0  13875-3 0  9995
2 41853  97.9748 142.0587 0011182 127.8106 232.4129 14.97534670282654
PROMETHEUS 2-1          
1 41854U 16067G   22014.29920198  .00002359  00000+0  20368-3 0  9991
2 41854  97.9752 142.6060 0011671 127.4851 232.7434 14.98210189282657
PROMETHEUS 2-3          
1 41855U 16067H   22014.29412534  .00002167  00000+0  18746-3 0  9996
2 41855  97.9748 142.6676 0011768 129.2421 230.9847 14.98226400282657
INS-1B                  
1 41954U 17008G   22014.16540912  .00004901  00000+0  18304-3 0  9998
2 41954  97.2827  77.5124 0009964  69.8347 290.3963 15.27787804273161
BGUSAT                  
1 41999U 17008BD  22014.76093578  .00010258  00000+0  32385-3 0  9991
2 41999  97.3036  86.5698 0008121  67.1062 293.1037 15.32996603273043
DIDO-2                  
1 42000U 17008BE  22014.66315761  .00003698  00000+0  14484-3 0  9995
2 42000  97.2817  77.8962 0009658  85.8662 274.3680 15.26365067272590
PEASSS                  
1 42015U 17008BV  22014.74992856  .00004942  00000+0  18158-3 0  9991
2 42015  97.2874  81.1106 0007520  84.2218 275.9879 15.28340126273277
AL-FARABI 1             
1 42016U 17008BW  22014.46751345  .00006051  00000+0  21072-3 0  9999
2 42016  97.2934  83.2082 0007199  82.3674 277.8384 15.30011668273471
NAYIF-1 (EO-88)         
1 42017U 17008BX  22014.75394521  .00006665  00000+0  23131-3 0  9990
2 42017  97.2926  83.4956 0007229  80.8446 279.3612 15.30088658273541
UCLSAT                  
1 42765U 17036A   22014.54449106  .00005136  00000+0  20017-3 0  9990
2 42765  97.2228  62.2416 0011351 143.0110 217.1913 15.26325882254353
LITUANICASAT-2          
1 42768U 17036D   22014.36242300  .00008159  00000+0  29244-3 0  9999
2 42768  97.2316  63.6859 0013948 132.8347 227.4068 15.28890468253669
AALTO-1                 
1 42775U 17036L   22014.57786927  .00003146  00000+0  13410-3 0  9997
2 42775  97.2210  58.1254 0014164 144.3979 215.8207 15.23570152253338
URSA MAIOR              
1 42776U 17036M   22014.34107874  .00003127  00000+0  13187-3 0  9991
2 42776  97.2225  58.4971 0013916 144.2178 215.9995 15.23933878253320
COMPASS 2               
1 42777U 17036N   22014.58387278  .00006865  00000+0  25580-3 0  9998
2 42777  97.2298  63.7517 0012258 133.4261 226.8001 15.27691231253627
DIAMOND RED             
1 42783U 17036U   22014.36348409  .00003524  00000+0  14384-3 0  9993
2 42783  97.2237  60.5649 0012131 149.0629 211.1326 15.24977764253441
PEGASUS                 
1 42784U 17036V   22014.39474680  .00004335  00000+0  17232-3 0  9994
2 42784  97.2241  61.4956 0011935 146.5328 213.6667 15.25743434253505
DIAMOND GREEN           
1 42785U 17036W   22014.36281576  .00003552  00000+0  14492-3 0  9997
2 42785  97.2242  60.6206 0012030 149.5414 210.6525 15.24993203253513
DIAMOND BLUE            
1 42786U 17036X   22014.68999987  .00003977  00000+0  16194-3 0  9997
2 42786  97.2239  60.9282 0011963 148.9300 211.2649 15.24990936253488
NUDTSAT                 
1 42787U 17036Y   22014.87426676  .00005691  00000+0  20762-3 0  9990
2 42787  97.2278  65.1710 0011175 134.0445 226.1724 15.28476900253603
SUCHAI                  
1 42788U 17036Z   22014.39838805  .00005142  00000+0  19736-3 0  9999
2 42788  97.2248  62.7994 0011509 142.5538 217.6506 15.26836459253651
SKCUBE                  
1 42789U 17036AA  22014.53691028  .00005154  00000+0  20017-3 0  9997
2 42789  97.2243  62.5306 0011462 142.8614 217.3420 15.26444873253576
VZLUSAT-1               
1 42790U 17036AB  22014.34993744  .00006631  00000+0  24191-3 0  9996
2 42790  97.2278  64.6441 0010735 137.3279 222.8797 15.28419425253673
ROBUSTA-1B              
1 42792U 17036AD  22014.07506928  .00004534  00000+0  17479-3 0  9993
2 42792  97.2246  62.5547 0011019 144.0923 216.1059 15.26753542253543
CICERO 6                
1 42793U 17036AE  22014.58242728  .00003378  00000+0  13758-3 0  9996
2 42793  97.2218  61.3627 0010509 147.0814 213.1081 15.25095603253609
CORVUS BC2              
1 42846U 17042X   22014.56908413  .00000822  00000+0  85119-4 0  9992
2 42846  97.4424 240.4164 0010280 144.5858 215.6046 14.92493645245320
CORVUS BC1              
1 42847U 17042Y   22014.59310474  .00000496  00000+0  53277-4 0  9997
2 42847  97.4427 240.7166 0009970 143.1970 216.9937 14.92590471245332
MIRATA                  
1 43015U 17073C   22014.70476586  .00004902  00000+0  37121-3 0  9994
2 43015  97.6899 275.8256 0245390 326.0006  32.5686 14.81833157224489
MAKERSAT 0              
1 43016U 17073D   22014.45905002  .00003610  00000+0  27776-3 0  9997
2 43016  97.6926 275.4345 0250287 329.9846  28.7214 14.80757885224397
AEROCUBE 7B (OCSD B)    
1 43042U 17071F   22014.53337502  .00023151  00000+0  34386-3 0  9994
2 43042  51.6364 102.3681 0003166   6.1855 353.9175 15.55074542231593
AEROCUBE 7C (OCSD C)    
1 43043U 17071G   22014.53344506  .00022547  00000+0  34058-3 0  9991
2 43043  51.6351 103.0963 0003321   9.9600 350.1456 15.54629114231550
ASGARDIA 1              
1 43049U 17071N   22014.77889476  .00021497  00000+0  33331-3 0  9999
2 43049  51.6371 101.9066 0001644  28.3686 331.7394 15.53943495231583
ISARA                   
1 43050U 17071P   22014.64133041  .00160570  00000+0  79353-3 0  9997
2 43050  51.6267  52.1351 0004972  36.0796 324.0541 15.81052041232239
PROPCUBE 2 (FAUNA)      
1 43052U 17071R   22014.70427176  .00026648  00000+0  38531-3 0  9991
2 43052  51.6346  96.8823 0001683  21.8425 338.2638 15.55725058231649
CORVUS BC3              
1 43118U 18004H   22014.74821605  .00003335  00000+0  13556-3 0  9998
2 43118  97.3829  89.5632 0009775 176.2783 183.8529 15.25209905222776
MICROMAS-2A             
1 43131U 18004W   22014.46268547  .00007772  00000+0  27177-3 0  9995
2 43131  97.3936  94.1131 0008046 165.8474 194.2993 15.29785027222990
SPACEBEE-4              
1 43139U 18004AE  22014.75564156  .00013745  00000+0  42772-3 0  9995
2 43139  97.4023  97.8574 0007098 160.0319 200.1202 15.33395529223213
SPACEBEE-3              
1 43140U 18004AF  22014.74098305  .00019282  00000+0  54189-3 0  9991
2 43140  97.4061 100.1704 0006491 154.6644 205.4919 15.36541190223354
SPACEBEE-2              
1 43141U 18004AG  22014.76757982  .00022700  00000+0  61409-3 0  9999
2 43141  97.4086 101.0931 0005960 152.6515 207.5044 15.37696861223404
SPACEBEE-1              
1 43142U 18004AH  22014.80415947  .00026117  00000+0  67420-3 0  9992
2 43142  97.4099 102.0606 0005893 148.7153 211.4444 15.39112799223456
CICERO 7                
1 43143U 18004AJ  22014.17462576  .00006685  00000+0  23676-3 0  9996
2 43143  97.3912  93.7316 0006363 173.6987 186.4335 15.29435886222968
GOMX-4B                 
1 43196U 18015E   22014.66131455  .00001942  00000+0  79412-4 0  9990
2 43196  97.5105 153.0725 0016697 235.1695 124.7973 15.25491104219709
GOMX-4A                 
1 43197U 18015F   22014.85149171  .00003018  00000+0  11826-3 0  9996
2 43197  97.5099 153.7403 0016729 235.1640 251.9278 15.26454614219772
AEROCUBE 12A            
1 43556U 18046C   22014.27023106  .00006400  00000+0  20309-3 0  9998
2 43556  51.6379 212.0841 0007429 196.5057 163.5685 15.33932919195610
AEROCUBE 12B            
1 43557U 18046D   22014.26877180  .00004234  00000+0  14220-3 0  9995
2 43557  51.6386 215.0224 0007541 194.4823 165.5944 15.33014184195525
SURFSAT                 
1 43614U 18070B   22014.62811109  .00011534  00000+0  23997-3 0  9997
2 43614  93.0204  34.0835 0009792 259.8110 100.2044 15.45564126187246
CP7 (DAVE)              
1 43615U 18070C   22014.56419086  .00010780  00000+0  22770-3 0  9999
2 43615  93.0208  33.9774 0010025 260.8497  99.1626 15.45120244187210
ELFIN-B                 
1 43616U 18070D   22014.57927199  .00018136  00000+0  32012-3 0  9993
2 43616  93.0154  34.5439 0008899 250.9508 109.0789 15.50286855187415
ELFIN-A                 
1 43617U 18070E   22014.58194880  .00019096  00000+0  32736-3 0  9997
2 43617  93.0207  35.6244 0008223 245.5441 114.4963 15.51115571187442
CUBEBEL-1 (BSUSAT-1)    
1 43666U 18083E   22014.85957352  .00003591  00000+0  16707-3 0  9999
2 43666  97.4381  45.4759 0014907 144.6636 340.8023 15.20500424178126
CICERO 10               
1 43690U 18088A   22014.53756588  .00003758  00000+0  16105-3 0  9991
2 43690  85.0361  58.2804 0014065   4.3245 355.8116 15.22321105176328
IRVINE01                
1 43693U 18088D   22014.51409474  .00011383  00000+0  40400-3 0  9999
2 43693  85.0320  54.3632 0013460 332.3722  27.6807 15.28827209176642
